[{"OBJECT_NAME":"STARLINK-33995","OBJECT_ID":"2025-087K","EPOCH":"2025-10-26T21:56:04.176672","MEAN_MOTION":15.30198164,"ECCENTRICITY":0.00012816,"INCLINATION":53.1584,"RA_OF_ASC_NODE":121.2337,"ARG_OF_PERICENTER":87.4353,"MEAN_ANOMALY":272.6794,"EPHEMERIS_TYPE":0,"CLASSIFICATION_TYPE":"U","NORAD_CAT_ID":63706,"ELEMENT_SET_NO":999,"REV_AT_EPOCH":2871,"BSTAR":0.0015373276,"MEAN_MOTION_DOT":0.00045448,"MEAN_MOTION_DDOT":0},{"OBJECT_NAME":"STARLINK-33982","OBJECT_ID":"2025-087L","EPOCH":"2025-10-26T22:38:27.243168","MEAN_MOTION":15.3019667,"ECCENTRICITY":0.00011409,"INCLINATION":53.1567,"RA_OF_ASC_NODE":120.7086,"ARG_OF_PERICENTER":81.6904,"MEAN_ANOMALY":278.4226,"EPHEMERIS_TYPE":0,"CLASSIFICATION_TYPE":"U","NORAD_CAT_ID":63707,"ELEMENT_SET_NO":999,"REV_AT_EPOCH":2872,"BSTAR":0.00075303896,"MEAN_MOTION_DOT":0.00022007,"MEAN_MOTION_DDOT":0},{"OBJECT_NAME":"STARLINK-33915","OBJECT_ID":"2025-087M","EPOCH":"2025-10-26T21:21:06.961824","MEAN_MOTION":15.30214945,"ECCENTRICITY":0.00014484,"INCLINATION":53.1583,"RA_OF_ASC_NODE":121.0872,"ARG_OF_PERICENTER":87.5785,"MEAN_ANOMALY":272.5382,"EPHEMERIS_TYPE":0,"CLASSIFICATION_TYPE":"U","NORAD_CAT_ID":63708,"ELEMENT_SET_NO":999,"REV_AT_EPOCH":2871,"BSTAR":0.00060766959,"MEAN_MOTION_DOT":0.00017689,"MEAN_MOTION_DDOT":0},{"OBJECT_NAME":"STARLINK-33862","OBJECT_ID":"2025-087N","EPOCH":"2025-10-26T21:12:00.062784","MEAN_MOTION":15.3020983,"ECCENTRICITY":0.00011566,"INCLINATION":53.158,"RA_OF_ASC_NODE":121.049,"ARG_OF_PERICENTER":79.5426,"MEAN_ANOMALY":280.5705,"EPHEMERIS_TYPE":0,"CLASSIFICATION_TYPE":"U","NORAD_CAT_ID":63709,"ELEMENT_SET_NO":999,"REV_AT_EPOCH":2871,"BSTAR":0.00091241937,"MEAN_MOTION_DOT":0.0002677,"MEAN_MOTION_DDOT":0},{"OBJECT_NAME":"STARLINK-33920","OBJECT_ID":"2025-087P","EPOCH":"2025-10-26T18:37:22.030752","MEAN_MOTION":15.30119573,"ECCENTRICITY":0.00016922,"INCLINATION":53.159,"RA_OF_ASC_NODE":121.7982,"ARG_OF_PERICENTER":76.6685,"MEAN_ANOMALY":283.4504,"EPHEMERIS_TYPE":0,"CLASSIFICATION_TYPE":"U","NORAD_CAT_ID":63710,"ELEMENT_SET_NO":999,"REV_AT_EPOCH":2869,"BSTAR":-0.00044255588,"MEAN_MOTION_DOT":-0.00013411,"MEAN_MOTION_DDOT":0},{"OBJECT_NAME":"STARLINK-33580","OBJECT_ID":"2025-087Q","EPOCH":"2025-10-26T21:59:06.336384","MEAN_MOTION":15.30204231,"ECCENTRICITY":0.00012377,"INCLINATION":53.1587,"RA_OF_ASC_NODE":121.2487,"ARG_OF_PERICENTER":92.0225,"MEAN_ANOMALY":268.0917,"EPHEMERIS_TYPE":0,"CLASSIFICATION_TYPE":"U","NORAD_CAT_ID":63711,"ELEMENT_SET_NO":999,"REV_AT_EPOCH":2871,"BSTAR":0.0010047891,"MEAN_MOTION_DOT":0.00029522,"MEAN_MOTION_DDOT":0},{"OBJECT_NAME":"STARLINK-33783","OBJECT_ID":"2025-087R","EPOCH":"2025-10-26T18:34:17.349024","MEAN_MOTION":15.30214068,"ECCENTRICITY":0.00027395,"INCLINATION":53.1594,"RA_OF_ASC_NODE":121.7827,"ARG_OF_PERICENTER":86.0524,"MEAN_ANOMALY":274.079,"EPHEMERIS_TYPE":0,"CLASSIFICATION_TYPE":"U","NORAD_CAT_ID":63712,"ELEMENT_SET_NO":999,"REV_AT_EPOCH":2869,"BSTAR":0.0010466617,"MEAN_MOTION_DOT":0.00030783,"MEAN_MOTION_DDOT":0},{"OBJECT_NAME":"STARLINK-33773","OBJECT_ID":"2025-087S","EPOCH":"2025-10-26T19:18:11.398176","MEAN_MOTION":15.30205481,"ECCENTRICITY":0.00010202,"INCLINATION":53.1574,"RA_OF_ASC_NODE":121.2617,"ARG_OF_PERICENTER":77.8271,"MEAN_ANOMALY":282.2844,"EPHEMERIS_TYPE":0,"CLASSIFICATION_TYPE":"U","NORAD_CAT_ID":63713,"ELEMENT_SET_NO":999,"REV_AT_EPOCH":2870,"BSTAR":0.0012101209,"MEAN_MOTION_DOT":0.00035659,"MEAN_MOTION_DDOT":0},{"OBJECT_NAME":"STARLINK-33745","OBJECT_ID":"2025-087T","EPOCH":"2025-10-26T19:13:37.874784","MEAN_MOTION":15.30202957,"ECCENTRICITY":0.00010685,"INCLINATION":53.1576,"RA_OF_ASC_NODE":121.2412,"ARG_OF_PERICENTER":86.2521,"MEAN_ANOMALY":273.8602,"EPHEMERIS_TYPE":0,"CLASSIFICATION_TYPE":"U","NORAD_CAT_ID":63714,"ELEMENT_SET_NO":999,"REV_AT_EPOCH":2870,"BSTAR":0.00056056775,"MEAN_MOTION_DOT":0.00016281,"MEAN_MOTION_DDOT":0},{"OBJECT_NAME":"STARLINK-33728","OBJECT_ID":"2025-087U","EPOCH":"2025-10-26T19:24:16.223904","MEAN_MOTION":15.30200465,"ECCENTRICITY":0.00010615,"INCLINATION":53.1569,"RA_OF_ASC_NODE":121.2851,"ARG_OF_PERICENTER":85.4738,"MEAN_ANOMALY":274.6384,"EPHEMERIS_TYPE":0,"CLASSIFICATION_TYPE":"U","NORAD_CAT_ID":63715,"ELEMENT_SET_NO":999,"REV_AT_EPOCH":2870,"BSTAR":0.00083669412,"MEAN_MOTION_DOT":0.00024503,"MEAN_MOTION_DDOT":0},{"OBJECT_NAME":"STARLINK-33749","OBJECT_ID":"2025-087V","EPOCH":"2025-10-26T18:41:52.987200","MEAN_MOTION":15.30219658,"ECCENTRICITY":0.00022467,"INCLINATION":53.159,"RA_OF_ASC_NODE":121.8131,"ARG_OF_PERICENTER":94.3814,"MEAN_ANOMALY":265.7443,"EPHEMERIS_TYPE":0,"CLASSIFICATION_TYPE":"U","NORAD_CAT_ID":63716,"ELEMENT_SET_NO":999,"REV_AT_EPOCH":2869,"BSTAR":0.0011266809,"MEAN_MOTION_DOT":0.0003318,"MEAN_MOTION_DDOT":0},{"OBJECT_NAME":"STARLINK-33725","OBJECT_ID":"2025-087W","EPOCH":"2025-10-26T19:28:49.734336","MEAN_MOTION":15.30211492,"ECCENTRICITY":0.00010301,"INCLINATION":53.1572,"RA_OF_ASC_NODE":121.3056,"ARG_OF_PERICENTER":80.6501,"MEAN_ANOMALY":279.4617,"EPHEMERIS_TYPE":0,"CLASSIFICATION_TYPE":"U","NORAD_CAT_ID":63717,"ELEMENT_SET_NO":999,"REV_AT_EPOCH":2870,"BSTAR":0.00069155365,"MEAN_MOTION_DOT":0.00020186,"MEAN_MOTION_DDOT":0},{"OBJECT_NAME":"STARLINK-33641","OBJECT_ID":"2025-087X","EPOCH":"2025-10-26T21:25:41.889216","MEAN_MOTION":15.30171312,"ECCENTRICITY":9.02e-5,"INCLINATION":53.1584,"RA_OF_ASC_NODE":121.1022,"ARG_OF_PERICENTER":79.4025,"MEAN_ANOMALY":280.7077,"EPHEMERIS_TYPE":0,"CLASSIFICATION_TYPE":"U","NORAD_CAT_ID":63718,"ELEMENT_SET_NO":999,"REV_AT_EPOCH":2871,"BSTAR":0.0012611253,"MEAN_MOTION_DOT":0.00037145,"MEAN_MOTION_DDOT":0},{"OBJECT_NAME":"STARLINK-33727","OBJECT_ID":"2025-087Y","EPOCH":"2025-10-26T19:10:35.570784","MEAN_MOTION":15.30191435,"ECCENTRICITY":0.0001073,"INCLINATION":53.1575,"RA_OF_ASC_NODE":121.2297,"ARG_OF_PERICENTER":81.9009,"MEAN_ANOMALY":278.2114,"EPHEMERIS_TYPE":0,"CLASSIFICATION_TYPE":"U","NORAD_CAT_ID":63719,"ELEMENT_SET_NO":999,"REV_AT_EPOCH":2870,"BSTAR":0.0013400797,"MEAN_MOTION_DOT":0.00039531,"MEAN_MOTION_DDOT":0},{"OBJECT_NAME":"STARLINK-33757","OBJECT_ID":"2025-087Z","EPOCH":"2025-10-26T21:18:04.815936","MEAN_MOTION":15.30195027,"ECCENTRICITY":0.00013359,"INCLINATION":53.1584,"RA_OF_ASC_NODE":121.0693,"ARG_OF_PERICENTER":80.6149,"MEAN_ANOMALY":279.5003,"EPHEMERIS_TYPE":0,"CLASSIFICATION_TYPE":"U","NORAD_CAT_ID":63720,"ELEMENT_SET_NO":999,"REV_AT_EPOCH":2871,"BSTAR":0.0013893372,"MEAN_MOTION_DOT":0.0004101,"MEAN_MOTION_DDOT":0},{"OBJECT_NAME":"STARLINK-33774","OBJECT_ID":"2025-087AA","EPOCH":"2025-10-26T18:31:14.746944","MEAN_MOTION":15.30213047,"ECCENTRICITY":0.00012651,"INCLINATION":53.1595,"RA_OF_ASC_NODE":121.7693,"ARG_OF_PERICENTER":97.8168,"MEAN_ANOMALY":262.2976,"EPHEMERIS_TYPE":0,"CLASSIFICATION_TYPE":"U","NORAD_CAT_ID":63721,"ELEMENT_SET_NO":999,"REV_AT_EPOCH":2869,"BSTAR":0.0016233422,"MEAN_MOTION_DOT":0.0004805,"MEAN_MOTION_DDOT":0}]
