STARLINK-33995          
1 63706U 25087K   25299.91393723  .00045448  00000+0  15373-2 0  9993
2 63706  53.1584 121.2337 0001281  87.4353 272.6794 15.30198164 28714
STARLINK-33982          
1 63707U 25087L   25299.94337087  .00022007  00000+0  75304-3 0  9995
2 63707  53.1567 120.7086 0001140  81.6904 278.4226 15.30196670 28728
STARLINK-33915          
1 63708U 25087M   25299.88966391  .00017689  00000+0  60767-3 0  9992
2 63708  53.1583 121.0872 0001448  87.5785 272.5382 15.30214945 28710
STARLINK-33862          
1 63709U 25087N   25299.88333406  .00026770  00000+0  91242-3 0  9991
2 63709  53.1580 121.0490 0001156  79.5426 280.5705 15.30209830 28718
STARLINK-33920          
1 63710U 25087P   25299.77594943 -.00013411  00000+0 -44256-3 0  9999
2 63710  53.1590 121.7982 0001692  76.6685 283.4504 15.30119573 28694
STARLINK-33580          
1 63711U 25087Q   25299.91604556  .00029522  00000+0  10048-2 0  9997
2 63711  53.1587 121.2487 0001237  92.0225 268.0917 15.30204231 28719
STARLINK-33783          
1 63712U 25087R   25299.77381191  .00030783  00000+0  10467-2 0  9995
2 63712  53.1594 121.7827 0002739  86.0524 274.0790 15.30214068 28696
STARLINK-33773          
1 63713U 25087S   25299.80429859  .00035659  00000+0  12101-2 0  9998
2 63713  53.1574 121.2617 0001020  77.8271 282.2844 15.30205481 28708
STARLINK-33745          
1 63714U 25087T   25299.80113281  .00016281  00000+0  56057-3 0  9997
2 63714  53.1576 121.2412 0001068  86.2521 273.8602 15.30202957 28701
STARLINK-33728          
1 63715U 25087U   25299.80852111  .00024503  00000+0  83669-3 0  9995
2 63715  53.1569 121.2851 0001061  85.4738 274.6384 15.30200465 28703
STARLINK-33749          
1 63716U 25087V   25299.77908550  .00033180  00000+0  11267-2 0  9996
2 63716  53.1590 121.8131 0002246  94.3814 265.7443 15.30219658 28694
STARLINK-33725          
1 63717U 25087W   25299.81168674  .00020186  00000+0  69155-3 0  9999
2 63717  53.1572 121.3056 0001030  80.6501 279.4617 15.30211492 28702
STARLINK-33641          
1 63718U 25087X   25299.89284594  .00037145  00000+0  12611-2 0  9995
2 63718  53.1584 121.1022 0000902  79.4025 280.7077 15.30171312 28713
STARLINK-33727          
1 63719U 25087Y   25299.79902281  .00039531  00000+0  13401-2 0  9994
2 63719  53.1575 121.2297 0001073  81.9009 278.2114 15.30191435 28700
STARLINK-33757          
1 63720U 25087Z   25299.88755574  .00041010  00000+0  13893-2 0  9997
2 63720  53.1584 121.0693 0001335  80.6149 279.5003 15.30195027 28715
STARLINK-33774          
1 63721U 25087AA  25299.77169846  .00048050  00000+0  16233-2 0  9999
2 63721  53.1595 121.7693 0001265  97.8168 262.2976 15.30213047 28696
